NORAD_CAT_ID,OBJECT_NAME,OBJECT_TYPE,EPOCH,MEAN_MOTION,ECCENTRICITY,INCLINATION,RA_OF_ASC_NODE,ARG_OF_PERICENTER,MEAN_ANOMALY,BSTAR,MEAN_MOTION_DOT,MEAN_MOTION_DDOT,TLE_LINE0,TLE_LINE1,TLE_LINE2,SEMIMAJOR_AXIS,PERIOD,APOGEE,PERIGEE,DECAYED
53898.0,STARLINK-5044,PAYLOAD,2023-12-20 08:12:59,15.08836609,0.000153,53.2177,1.6346,82.8085,277.3081,2.7354e-07,-2.84e-06,0.0,0 STARLINK-5044,1 53898U 22119N   23354.34236077 -.00000284  00000-0  27354-6 0  9999,2 53898  53.2177   1.6346 0001530  82.8085 277.3081 15.08836609 68930,6917.891,95.438,540.814,538.697,0.0
53898.0,STARLINK-5044,PAYLOAD,2023-12-21 08:03:46,15.08859052,0.0001535,53.218,357.1761,79.1226,280.9938,0.00044885,6.866e-05,0.0,0 STARLINK-5044,1 53898U 22119N   23355.33595165  .00006866  00000-0  44885-3 0  9991,2 53898  53.2180 357.1761 0001535  79.1226 280.9938 15.08859052 69080,6917.822,95.436,540.749,538.625,0.0
53898.0,STARLINK-5044,PAYLOAD,2023-12-22 06:19:10,15.08841048,0.0001415,53.2175,353.0146,100.5514,259.5637,7.1904e-05,8.57e-06,0.0,0 STARLINK-5044,1 53898U 22119N   23356.26332071  .00000857  00000-0  71904-4 0  9996,2 53898  53.2175 353.0146 0001415 100.5514 259.5637 15.08841048 69222,6917.877,95.437,540.721,538.763,0.0
53898.0,STARLINK-5044,PAYLOAD,2023-12-23 09:20:44,15.08844295,0.0001621,53.219,347.947,91.2138,268.904,0.00018591,2.672e-05,0.0,0 STARLINK-5044,1 53898U 22119N   23357.38940057  .00002672  00000-0  18591-3 0  9998,2 53898  53.2190 347.9470 0001621  91.2138 268.9040 15.08844295 69395,6917.867,95.437,540.854,538.611,0.0
53898.0,STARLINK-5044,PAYLOAD,2023-12-24 04:25:21,15.08840497,0.0001645,53.2173,344.3773,120.288,239.8275,0.00019587,2.831e-05,0.0,0 STARLINK-5044,1 53898U 22119N   23358.18428207  .00002831  00000-0  19587-3 0  9998,2 53898  53.2173 344.3773 0001645 120.2880 239.8275 15.08840497 69517,6917.879,95.438,540.882,538.606,0.0
53898.0,STARLINK-5044,PAYLOAD,2023-12-25 02:40:47,15.08811624,0.0001462,53.2173,340.2127,97.37,262.7458,-0.00030959,-5.208e-05,0.0,0 STARLINK-5044,1 53898U 22119N   23359.11165704 -.00005208  00000-0 -30959-3 0  9991,2 53898  53.2173 340.2127 0001462  97.3700 262.7458 15.08811624 69650,6917.967,95.439,540.844,538.821,0.0
53898.0,STARLINK-5044,PAYLOAD,2023-12-25 09:02:20,15.08813919,0.0001457,53.2182,339.03,100.0785,260.0371,-0.00037391,-6.229e-05,0.0,0 STARLINK-5044,1 53898U 22119N   23359.37662102 -.00006229  00000-0 -37391-3 0  9994,2 53898  53.2182 339.0300 0001457 100.0785 260.0371 15.08813919 70115,6917.96,95.439,540.833,538.817,0.0
53898.0,STARLINK-5044,PAYLOAD,2023-12-26 04:06:57,15.08840053,0.0001457,53.2172,335.4639,81.112,279.0037,0.00020638,2.998e-05,0.0,0 STARLINK-5044,1 53898U 22119N   23360.17149723  .00002998  00000-0  20638-3 0  9996,2 53898  53.2172 335.4639 0001457  81.1120 279.0037 15.08840053 69814,6917.88,95.438,540.753,538.737,0.0
53898.0,STARLINK-5044,PAYLOAD,2023-12-26 08:53:06,15.08839695,0.000162,53.218,334.5647,105.2154,254.9018,0.00018043,2.585e-05,0.0,0 STARLINK-5044,1 53898U 22119N   23360.37021616  .00002585  00000-0  18043-3 0  9997,2 53898  53.2180 334.5647 0001620 105.2154 254.9018 15.08839695 70261,6917.881,95.438,540.867,538.626,0.0
53898.0,STARLINK-5044,PAYLOAD,2023-12-27 07:08:29,15.08867853,0.0001623,53.218,330.402,89.8042,270.3136,0.00072042,0.00011205,0.0,0 STARLINK-5044,1 53898U 22119N   23361.29756820  .00011205  00000-0  72042-3 0  9999,2 53898  53.2180 330.4020 0001623  89.8042 270.3136 15.08867853 69984,6917.795,95.436,540.783,538.537,0.0
53898.0,STARLINK-5044,PAYLOAD,2023-12-28 03:48:30,15.08853583,0.0001441,53.2178,326.5377,105.6967,254.4185,0.00011537,1.549e-05,0.0,0 STARLINK-5044,1 53898U 22119N   23362.15868463  .00001549  00000-0  11537-3 0  9994,2 53898  53.2178 326.5377 0001441 105.6967 254.4185 15.08853583 70112,6917.839,95.437,540.701,538.707,0.0
53898.0,STARLINK-5044,PAYLOAD,2023-12-28 06:59:16,15.08854405,0.0001311,53.2176,325.9435,102.7385,257.3754,0.00019382,2.799e-05,0.0,0 STARLINK-5044,1 53898U 22119N   23362.29116391  .00002799  00000-0  19382-3 0  9999,2 53898  53.2176 325.9435 0001311 102.7385 257.3754 15.08854405 70552,6917.836,95.437,540.608,538.794,0.0
53898.0,STARLINK-5044,PAYLOAD,2023-12-28 21:17:45,15.0883905,0.0001855,53.2171,323.2762,67.6764,292.4425,0.00030862,4.627e-05,0.0,0 STARLINK-5044,1 53898U 22119N   23362.88733168  .00004627  00000-0  30862-3 0  9999,2 53898  53.2171 323.2762 0001855  67.6764 292.4425 15.08839050 70648,6917.883,95.438,541.032,538.465,0.0
53898.0,STARLINK-5044,PAYLOAD,2023-12-29 03:39:18,15.08838415,0.0001676,53.2175,322.0845,73.655,286.4627,-8.757e-06,-4.27e-06,0.0,0 STARLINK-5044,1 53898U 22119N   23363.15229204 -.00000427  00000-0 -87570-5 0  9997,2 53898  53.2175 322.0845 0001676  73.6550 286.4627 15.08838415 70261,6917.885,95.438,540.91,538.591,0.0
53898.0,STARLINK-5044,PAYLOAD,2023-12-29 05:14:41,15.08843769,0.0001698,53.2178,321.787,72.568,287.5497,3.1693e-05,2.16e-06,0.0,0 STARLINK-5044,1 53898U 22119N   23363.21853078  .00000216  00000-0  31693-4 0  9994,2 53898  53.2178 321.7870 0001698  72.5680 287.5497 15.08843769 70696,6917.869,95.437,540.909,538.559,0.0
53898.0,STARLINK-5044,PAYLOAD,2023-12-30 03:30:04,15.08849147,0.0001587,53.2177,317.6232,78.3247,281.7924,0.0002809,4.186e-05,0.0,0 STARLINK-5044,1 53898U 22119N   23364.14588893  .00004186  00000-0  28090-3 0  9993,2 53898  53.2177 317.6232 0001587  78.3247 281.7924 15.08849147 70418,6917.852,95.437,540.815,538.62,0.0
53898.0,STARLINK-5044,PAYLOAD,2023-12-30 20:59:19,15.08840914,0.0002123,53.2178,314.3565,57.8593,302.2605,0.00015739,2.218e-05,0.0,0 STARLINK-5044,1 53898U 22119N   23364.87453411  .00002218  00000-0  15739-3 0  9990,2 53898  53.2178 314.3565 0002123  57.8593 302.2605 15.08840914 70941,6917.878,95.437,541.211,538.274,0.0
53898.0,STARLINK-5044,PAYLOAD,2023-12-31 03:20:52,15.08841874,0.0001358,53.218,313.162,91.312,268.8027,6.5649e-05,7.57e-06,0.0,0 STARLINK-5044,1 53898U 22119N   23365.13949095  .00000757  00000-0  65649-4 0  9990,2 53898  53.2180 313.1620 0001358  91.3120 268.8027 15.08841874 70560,6917.875,95.437,540.679,538.8,0.0
53898.0,STARLINK-5044,PAYLOAD,2023-12-31 06:31:38,15.08843871,0.0001333,53.2178,312.5665,95.0415,265.073,8.4467e-05,1.057e-05,0.0,0 STARLINK-5044,1 53898U 22119N   23365.27196959  .00001057  00000-0  84467-4 0  9991,2 53898  53.2178 312.5665 0001333  95.0415 265.0730 15.08843871 71009,6917.869,95.437,540.656,538.811,0.0
53898.0,STARLINK-5044,PAYLOAD,2024-01-01 03:11:38,15.08845006,0.0001397,53.2181,308.7006,108.1281,251.9863,-1.9444e-05,-5.97e-06,0.0,0 STARLINK-5044,1 53898U 22119N   24001.13308889 -.00000597  00000-0 -19444-4 0  9994,2 53898  53.2181 308.7006 0001397 108.1281 251.9863 15.08845006 71133,6917.865,95.437,540.697,538.764,0.0
53898.0,STARLINK-5044,PAYLOAD,2024-01-01 19:05:30,15.08838948,0.0001369,53.218,305.7273,102.2673,257.8472,8.8011e-05,1.113e-05,0.0,0 STARLINK-5044,1 53898U 22119N   24001.79549312  .00001113  00000-0  88011-4 0  9993,2 53898  53.2180 305.7273 0001369 102.2673 257.8472 15.08838948 70816,6917.884,95.438,540.696,538.802,0.0
53898.0,STARLINK-5044,PAYLOAD,2024-01-02 06:13:12,15.08837535,0.0001325,53.2187,303.6463,102.9409,257.1731,6.944e-05,8.17e-06,0.0,0 STARLINK-5044,1 53898U 22119N   24002.25917534  .00000817  00000-0  69440-4 0  9995,2 53898  53.2187 303.6463 0001325 102.9409 257.1731 15.08837535 71304,6917.888,95.438,540.67,538.836,0.0
53898.0,STARLINK-5044,PAYLOAD,2024-01-02 18:56:18,15.0883483,0.0001308,53.2184,301.2679,101.705,258.4089,7.2551e-05,8.67e-06,0.0,0 STARLINK-5044,1 53898U 22119N   24002.78909843  .00000867  00000-0  72551-4 0  9999,2 53898  53.2184 301.2679 0001308 101.7050 258.4089 15.08834830 70960,6917.896,95.438,540.666,538.856,0.0
53898.0,STARLINK-5044,PAYLOAD,2024-01-03 04:28:36,15.08843788,0.0001332,53.2184,299.4843,95.0679,265.0465,0.00010614,1.402e-05,0.0,0 STARLINK-5044,1 53898U 22119N   24003.18653176  .00001402  00000-0  10614-3 0  9996,2 53898  53.2184 299.4843 0001332  95.0679 265.0465 15.08843788 71022,6917.869,95.437,540.655,538.812,0.0
53898.0,STARLINK-5044,PAYLOAD,2024-01-04 02:44:00,15.08839882,0.000135,53.2182,295.3225,67.1032,293.0102,0.00010074,1.316e-05,0.0,0 STARLINK-5044,1 53898U 22119N   24004.11389615  .00001316  00000-0  10074-3 0  9998,2 53898  53.2182 295.3225 0001350  67.1032 293.0102 15.08839882 71166,6917.881,95.438,540.68,538.812,0.0
53898.0,STARLINK-5044,PAYLOAD,2024-01-04 04:19:23,15.08842406,0.0001327,53.2178,295.0236,91.2215,268.8929,0.00011252,1.503e-05,0.0,0 STARLINK-5044,1 53898U 22119N   24004.18013322  .00001503  00000-0  11252-3 0  9991,2 53898  53.2178 295.0236 0001327  91.2215 268.8929 15.08842406 71595,6917.873,95.437,540.656,538.82,0.0
53898.0,STARLINK-5044,PAYLOAD,2024-01-05 02:34:47,15.08849741,0.0001573,53.2181,290.8588,98.847,261.27,7.7303e-05,9.43e-06,0.0,0 STARLINK-5044,1 53898U 22119N   24005.10748860  .00000943  00000-0  77303-4 0  9993,2 53898  53.2181 290.8588 0001573  98.8470 261.2700 15.08849741 71314,6917.851,95.437,540.804,538.627,0.0
53898.0,STARLINK-5044,PAYLOAD,2024-01-06 04:00:57,15.08842408,0.0001452,53.2178,286.1019,83.4836,276.6321,-7.7268e-06,-4.11e-06,0.0,0 STARLINK-5044,1 53898U 22119N   24006.16733519 -.00000411  00000-0 -77268-5 0  9998,2 53898  53.2178 286.1019 0001452  83.4836 276.6321 15.08842408 71478,6917.873,95.437,540.743,538.734,0.0
53898.0,STARLINK-5044,PAYLOAD,2024-01-07 03:51:44,15.08857025,0.0001756,53.2184,281.6393,74.9027,285.2159,-9.8775e-05,-1.861e-05,0.0,0 STARLINK-5044,1 53898U 22119N   24007.16092897 -.00001861  00000-0 -98775-4 0  9991,2 53898  53.2184 281.6393 0001756  74.9027 285.2159 15.08857025 71627,6917.828,95.436,540.908,538.479,0.0
53898.0,STARLINK-5044,PAYLOAD,2024-01-07 22:56:22,15.0882838,0.0001588,53.218,278.0693,73.0745,287.0422,0.00012057,1.631e-05,0.0,0 STARLINK-5044,1 53898U 22119N   24007.95582121  .00001631  00000-0  12057-3 0  9993,2 53898  53.2180 278.0693 0001588  73.0745 287.0422 15.08828380 72161,6917.916,95.438,540.879,538.682,0.0
